NORAD_CAT_ID,OBJECT_NAME,OBJECT_TYPE,EPOCH,MEAN_MOTION,ECCENTRICITY,INCLINATION,RA_OF_ASC_NODE,ARG_OF_PERICENTER,MEAN_ANOMALY,BSTAR,MEAN_MOTION_DOT,MEAN_MOTION_DDOT,TLE_LINE0,TLE_LINE1,TLE_LINE2,SEMIMAJOR_AXIS,PERIOD,APOGEE,PERIGEE,DECAYED
54805.0,STARLINK-5417,PAYLOAD,2023-02-02 06:54:19,15.71497725,0.0006375,53.2156,76.134,75.9372,284.2355,-0.0017035,-0.00217654,0.0,0 STARLINK-5417,1 54805U 22175AZ  23033.28772731 -.00217654  00000-0 -17035-2 0  9992,2 54805  53.2156  76.1340 0006375  75.9372 284.2355 15.71497725  9210,6732.753,91.632,358.91,350.326,0.0
54805.0,STARLINK-5417,PAYLOAD,2023-02-03 02:00:01,15.70792934,0.0001436,53.2152,72.1918,89.6884,101.5587,-0.0078806,-0.00897844,0.0,0 STARLINK-5417,1 54805U 22175AZ  23034.08334491 -.00897844  00000-0 -78806-2 0  9996,2 54805  53.2152  72.1918 0001436  89.6884 101.5587 15.70792934  7176,6734.767,91.673,357.599,355.664,0.0
54805.0,STARLINK-5417,PAYLOAD,2023-02-03 14:00:01,15.69807663,0.0001365,53.2151,69.7304,73.5112,65.8924,-0.0080903,-0.00885609,0.0,0 STARLINK-5417,1 54805U 22175AZ  23034.58334491 -.00885609  00000-0 -80903-2 0  9998,2 54805  53.2151  69.7304 0001365  73.5112  65.8924 15.69807663  1303,6737.584,91.731,360.369,358.53,0.0
54805.0,STARLINK-5417,PAYLOAD,2023-02-04 00:00:00,15.68979344,0.0001158,53.2149,67.6778,97.3861,237.4752,-0.0081678,-0.0086577,0.0,0 STARLINK-5417,1 54805U 22175AZ  23035.00001157 -.00865770  00000-0 -81678-2 0  9993,2 54805  53.2149  67.6778 0001158  97.3861 237.4752 15.68979344  1308,6739.955,91.779,362.601,361.04,0.0
54805.0,STARLINK-5417,PAYLOAD,2023-02-04 14:00:01,15.67862052,0.0001154,53.2141,64.8138,79.6786,310.7493,-0.0088895,-0.00910044,0.0,0 STARLINK-5417,1 54805U 22175AZ  23035.58334491 -.00910044  00000-0 -88895-2 0  9999,2 54805  53.2141  64.8138 0001154  79.6786 310.7493 15.67862052  7415,6743.157,91.845,365.8,364.244,0.0
54805.0,STARLINK-5417,PAYLOAD,2023-02-04 22:00:00,15.67180866,0.0001153,53.2143,63.176,95.1711,17.3831,-0.0086952,-0.00856716,0.0,0 STARLINK-5417,1 54805U 22175AZ  23035.91667824 -.00856716  00000-0 -86952-2 0  9992,2 54805  53.2143  63.1760 0001153  95.1711  17.3831 15.67180866  1304,6745.111,91.885,367.754,366.198,0.0
54805.0,STARLINK-5417,PAYLOAD,2023-02-05 06:00:00,15.66570464,0.0001337,53.2145,61.5429,92.7221,101.1489,-0.0097712,-0.00945348,0.0,0 STARLINK-5417,1 54805U 22175AZ  23036.25001157 -.00945348  00000-0 -97712-2 0  9997,2 54805  53.2145  61.5429 0001337  92.7221 101.1489 15.66570464  7519,6746.863,91.921,369.63,367.826,0.0
54805.0,STARLINK-5417,PAYLOAD,2023-02-05 14:00:01,15.65921591,0.0001086,53.2143,59.9109,87.5674,186.9077,-0.0098467,-0.00929383,0.0,0 STARLINK-5417,1 54805U 22175AZ  23036.58335648 -.00929383  00000-0 -98467-2 0  9997,2 54805  53.2143  59.9109 0001086  87.5674 186.9077 15.65921591  1303,6748.727,91.959,371.324,369.859,0.0
54805.0,STARLINK-5417,PAYLOAD,2023-02-05 22:00:00,15.65226101,9.87e-05,53.2145,58.2779,95.3354,258.8581,-0.0093364,-0.0086285,0.0,0 STARLINK-5417,1 54805U 22175AZ  23036.91667824 -.00862850  00000-0 -93364-2 0  9994,2 54805  53.2145  58.2779 0000987  95.3354 258.8581 15.65226101  7626,6750.726,91.999,373.257,371.924,0.0
54805.0,STARLINK-5417,PAYLOAD,2023-02-06 14:00:01,15.63975122,0.0001208,53.2138,55.0224,80.1096,71.2444,-0.010797,-0.00941336,0.0,0 STARLINK-5417,1 54805U 22175AZ  23037.58334491 -.00941336  00000-0 -10797-1 0  9994,2 54805  53.2138  55.0224 0001208  80.1096  71.2444 15.63975122  7728,6754.325,92.073,377.006,375.374,0.0
54805.0,STARLINK-5417,PAYLOAD,2023-02-06 22:00:00,15.63277354,0.0001192,53.2138,53.3943,100.1625,128.6274,-0.010177,-0.00869645,0.0,0 STARLINK-5417,1 54805U 22175AZ  23037.91667824 -.00869645  00000-0 -10177-1 0  9994,2 54805  53.2138  53.3943 0001192 100.1625 128.6274 15.63277354  1308,6756.335,92.114,379.005,377.394,0.0
54805.0,STARLINK-5417,PAYLOAD,2023-02-07 14:00:01,15.62033573,0.0001013,53.2139,50.1483,82.5159,298.7397,-0.011929,-0.0096116,0.0,0 STARLINK-5417,1 54805U 22175AZ  23038.58334491 -.00961160  00000-0 -11929-1 0  9990,2 54805  53.2139  50.1483 0001013  82.5159 298.7397 15.62033573  1307,6759.921,92.188,382.47,381.101,0.0
54805.0,STARLINK-5417,PAYLOAD,2023-02-07 16:00:01,15.61868028,0.0001155,53.2142,49.7419,84.8608,45.3072,-0.012147,-0.00971376,0.0,0 STARLINK-5417,1 54805U 22175AZ  23038.66668981 -.00971376  00000-0 -12147-1 0  9996,2 54805  53.2142  49.7419 0001155  84.8608  45.3072 15.61868028  7891,6760.398,92.197,383.044,381.482,0.0
54805.0,STARLINK-5417,PAYLOAD,2023-02-07 22:00:00,15.61320098,0.0001197,53.2144,48.5246,93.2808,3.0678,-0.010892,-0.00862596,0.0,0 STARLINK-5417,1 54805U 22175AZ  23038.91667824 -.00862596  00000-0 -10892-1 0  9997,2 54805  53.2144  48.5246 0001197  93.2808   3.0678 15.61320098  1303,6761.98,92.23,384.654,383.035,0.0
54805.0,STARLINK-5417,PAYLOAD,2023-02-08 08:00:01,15.60512413,0.0001308,53.2147,46.5019,90.8998,188.1834,-0.011434,-0.00876331,0.0,0 STARLINK-5417,1 54805U 22175AZ  23039.33334491 -.00876331  00000-0 -11434-1 0  9990,2 54805  53.2147  46.5019 0001308  90.8998 188.1834 15.60512413  8005,6764.313,92.277,387.063,385.293,0.0
54805.0,STARLINK-5417,PAYLOAD,2023-02-08 14:00:01,15.60082761,0.0001271,53.2145,45.2879,88.6043,155.516,-0.012998,-0.00969971,0.0,0 STARLINK-5417,1 54805U 22175AZ  23039.58334491 -.00969971  00000-0 -12998-1 0  9996,2 54805  53.2145  45.2879 0001271  88.6043 155.5160 15.60082761  1302,6765.555,92.303,388.28,386.56,0.0
54805.0,STARLINK-5417,PAYLOAD,2023-02-08 22:00:00,15.59375795,0.0001211,53.2145,43.6694,95.5816,221.2801,-0.011894,-0.00872867,0.0,0 STARLINK-5417,1 54805U 22175AZ  23039.91667824 -.00872867  00000-0 -11894-1 0  9993,2 54805  53.2145  43.6694 0001211  95.5816 221.2801 15.59375795  1301,6767.599,92.345,390.284,388.645,0.0
54805.0,STARLINK-5417,PAYLOAD,2023-02-09 12:00:00,15.58259949,0.0001197,53.2139,40.8462,73.0574,279.1774,-0.012963,-0.00908207,0.0,0 STARLINK-5417,1 54805U 22175AZ  23040.50001157 -.00908207  00000-0 -12963-1 0  9997,2 54805  53.2139  40.8462 0001197  73.0574 279.1774 15.58259949  1303,6770.83,92.411,393.505,391.884,0.0
54805.0,STARLINK-5417,PAYLOAD,2023-02-09 22:00:00,15.57436689,0.0001455,53.2142,38.8286,90.9792,79.3531,-0.013122,-0.008927,0.0,0 STARLINK-5417,1 54805U 22175AZ  23040.91667824 -.00892700  00000-0 -13122-1 0  9999,2 54805  53.2142  38.8286 0001455  90.9792  79.3531 15.57436689  8243,6773.216,92.46,396.066,394.095,0.0
54805.0,STARLINK-5417,PAYLOAD,2023-02-10 04:00:00,15.56957764,0.0001341,53.2145,37.6219,82.7156,49.89,-0.013857,-0.00922799,0.0,0 STARLINK-5417,1 54805U 22175AZ  23041.16667824 -.00922799  00000-0 -13857-1 0  9994,2 54805  53.2145  37.6219 0001341  82.7156  49.8900 15.56957764  1309,6774.605,92.488,397.378,395.561,0.0
54805.0,STARLINK-5417,PAYLOAD,2023-02-10 18:00:00,15.5579699,0.0001341,53.215,34.8057,86.8552,76.0069,-0.013828,-0.0088532,0.0,0 STARLINK-5417,1 54805U 22175AZ  23041.75001157 -.00885320  00000-0 -13828-1 0  9996,2 54805  53.2150  34.8057 0001341  86.8552  76.0069 15.55796990  8372,6777.974,92.557,400.748,398.93,0.0
54805.0,STARLINK-5417,PAYLOAD,2023-02-10 22:00:00,15.55475598,0.0001226,53.2149,34.0017,91.6099,285.1641,-0.013959,-0.00883254,0.0,0 STARLINK-5417,1 54805U 22175AZ  23041.91667824 -.00883254  00000-0 -13959-1 0  9992,2 54805  53.2149  34.0017 0001226  91.6099 285.1641 15.55475598  1303,6778.907,92.576,401.604,399.941,0.0
54805.0,STARLINK-5417,PAYLOAD,2023-02-11 14:00:01,15.54213206,0.0001354,53.215,30.7932,80.7249,69.7505,-0.015911,-0.00967291,0.0,0 STARLINK-5417,1 54805U 22175AZ  23042.58334491 -.00967291  00000-0 -15911-1 0  9991,2 54805  53.2150  30.7932 0001354  80.7249  69.7505 15.54213206  1302,6782.578,92.651,405.361,403.524,0.0
54805.0,STARLINK-5417,PAYLOAD,2023-02-11 16:00:00,15.5403216,0.0001279,53.2152,30.3919,90.553,166.4245,-0.015552,-0.00928356,0.0,0 STARLINK-5417,1 54805U 22175AZ  23042.66667824 -.00928356  00000-0 -15552-1 0  9999,2 54805  53.2152  30.3919 0001279  90.5530 166.4245 15.54032160  8517,6783.104,92.662,405.837,404.102,0.0
54805.0,STARLINK-5417,PAYLOAD,2023-02-11 22:00:00,15.53531564,0.0001431,53.2149,29.1894,95.4873,120.6776,-0.015194,-0.00893894,0.0,0 STARLINK-5417,1 54805U 22175AZ  23042.91667824 -.00893894  00000-0 -15194-1 0  9997,2 54805  53.2149  29.1894 0001431  95.4873 120.6776 15.53531564  1307,6784.562,92.692,407.397,405.456,0.0
54805.0,STARLINK-5417,PAYLOAD,2023-02-12 14:00:01,15.52258072,0.0001171,53.2143,25.9901,90.671,254.5075,-0.017027,-0.00964072,0.0,0 STARLINK-5417,1 54805U 22175AZ  23043.58334491 -.00964072  00000-0 -17027-1 0  9996,2 54805  53.2143  25.9901 0001171  90.6710 254.5075 15.52258072  1300,6788.272,92.768,410.932,409.342,0.0
54805.0,STARLINK-5417,PAYLOAD,2023-02-13 00:00:00,15.51434722,0.0001392,53.2147,23.9924,98.2507,55.9765,-0.017017,-0.00937622,0.0,0 STARLINK-5417,1 54805U 22175AZ  23044.00001157 -.00937622  00000-0 -17017-1 0  9994,2 54805  53.2147  23.9924 0001392  98.2507  55.9765 15.51434722  8729,6790.673,92.817,413.484,411.593,0.0
54805.0,STARLINK-5417,PAYLOAD,2023-02-13 14:00:01,15.50137305,0.0001189,53.2144,21.201,90.4092,82.4587,-0.0071559,-0.00390465,0.0,0 STARLINK-5417,1 54805U 22175AZ  23044.58334491 -.00390465  00000-0 -71559-2 0  9997,2 54805  53.2144  21.2010 0001189  90.4092  82.4587 15.50137305  1300,6794.462,92.895,417.135,415.519,0.0
54805.0,STARLINK-5417,PAYLOAD,2023-02-13 16:00:00,15.49970366,0.000138,53.2147,20.802,95.1754,183.01,-0.0027819,-0.00155712,0.0,0 STARLINK-5417,1 54805U 22175AZ  23044.66667824 -.00155712  00000-0 -27819-2 0  9999,2 54805  53.2147  20.8020 0001380  95.1754 183.0100 15.49970366  8833,6794.95,92.905,417.752,415.877,0.0
54805.0,STARLINK-5417,PAYLOAD,2023-02-13 22:00:00,15.49872014,0.0001374,53.2147,19.6064,102.4851,131.4181,0.0007059,0.00039798,0.0,0 STARLINK-5417,1 54805U 22175AZ  23044.91667824  .00039798  00000-0  70590-3 0  9995,2 54805  53.2147  19.6064 0001374 102.4851 131.4181 15.49872014  8860,6795.237,92.911,418.036,416.168,0.0
